start=new Date('2022-01-31T00:00:00.000Z').valueOf();
sats=[{"CLASSIFICATION_TYPE":"U","MEAN_MOTION_DDOT":"0.0000000000000","LAUNCH_DATE":"2020-02-17","RCS_SIZE":"LARGE","OBJECT_ID":"2020-012BH","MEAN_ANOMALY":"285.3887","TLE_LINE1":"1 45233U 20012BH  22030.90986958  .00000377  00000-0  44193-4 0  9995","PERIOD":"95.591","FILE":"3287903","OBJECT_NAME":"STARLINK-1238","MEAN_MOTION":"15.06410120","PERIAPSIS":"545.982","OBJECT_TYPE":"PAYLOAD","CENTER_NAME":"EARTH","REF_FRAME":"TEME","SITE":"AFETR","GP_ID":"194980155","MEAN_MOTION_DOT":"0.00000377","INCLINATION":"53.0556","RA_OF_ASC_NODE":"274.9049","APOAPSIS":"548.383","EPHEMERIS_TYPE":"0","ARG_OF_PERICENTER":"74.7293","TIME_SYSTEM":"UTC","DECAY_DATE":null,"BSTAR":"0.00004419300000","ELEMENT_SET_NO":"999","ECCENTRICITY":"0.00017330","MEAN_ELEMENT_THEORY":"SGP4","SEMIMAJOR_AXIS":"6925.318","NORAD_CAT_ID":"45233","EPOCH":"2022-01-30T21:50:12.731712","COUNTRY_CODE":"US","REV_AT_EPOCH":"10920","TLE_LINE2":"2 45233  53.0556 274.9049 0001733  74.7293 285.3887 15.06410120109207"},{"DECAY_DATE":null,"EPHEMERIS_TYPE":"0","APOAPSIS":"548.267","ARG_OF_PERICENTER":"52.5785","TIME_SYSTEM":"UTC","INCLINATION":"53.0539","RA_OF_ASC_NODE":"294.7175","MEAN_MOTION_DOT":"0.00002622","GP_ID":"194980405","SITE":"AFETR","COUNTRY_CODE":"US","REV_AT_EPOCH":"10891","TLE_LINE2":"2 45234  53.0539 294.7175 0001516  52.5785 307.5342 15.06398737108917","EPOCH":"2022-01-30T22:45:57.393216","BSTAR":"0.00019489000000","ELEMENT_SET_NO":"999","ECCENTRICITY":"0.00015160","SEMIMAJOR_AXIS":"6925.352","NORAD_CAT_ID":"45234","MEAN_ELEMENT_THEORY":"SGP4","LAUNCH_DATE":"2020-02-17","MEAN_MOTION_DDOT":"0.0000000000000","CLASSIFICATION_TYPE":"U","REF_FRAME":"TEME","OBJECT_TYPE":"PAYLOAD","CENTER_NAME":"EARTH","MEAN_MOTION":"15.06398737","PERIAPSIS":"546.168","FILE":"3287903","OBJECT_NAME":"STARLINK-1243","PERIOD":"95.592","TLE_LINE1":"1 45234U 20012BJ  22030.94858094  .00002622  00000-0  19489-3 0  9993","RCS_SIZE":"LARGE","OBJECT_ID":"2020-012BJ","MEAN_ANOMALY":"307.5342"},{"CLASSIFICATION_TYPE":"U","MEAN_MOTION_DDOT":"0.0000000000000","LAUNCH_DATE":"2020-02-17","RCS_SIZE":"LARGE","MEAN_ANOMALY":"296.0136","OBJECT_ID":"2020-012BK","TLE_LINE1":"1 45235U 20012BK  22030.93382854  .00001129  00000-0  94687-4 0  9994","PERIOD":"95.592","FILE":"3287903","OBJECT_NAME":"STARLINK-1246","PERIAPSIS":"545.960","MEAN_MOTION":"15.06402322","OBJECT_TYPE":"PAYLOAD","CENTER_NAME":"EARTH","REF_FRAME":"TEME","SITE":"AFETR","GP_ID":"194981157","MEAN_MOTION_DOT":"0.00001129","INCLINATION":"53.0535","RA_OF_ASC_NODE":"294.8067","ARG_OF_PERICENTER":"64.1039","APOAPSIS":"548.453","EPHEMERIS_TYPE":"0","TIME_SYSTEM":"UTC","DECAY_DATE":null,"BSTAR":"0.00009468700000","ELEMENT_SET_NO":"999","ECCENTRICITY":"0.00018000","NORAD_CAT_ID":"45235","SEMIMAJOR_AXIS":"6925.341","MEAN_ELEMENT_THEORY":"SGP4","EPOCH":"2022-01-30T22:24:42.785856","COUNTRY_CODE":"US","TLE_LINE2":"2 45235  53.0535 294.8067 0001800  64.1039 296.0136 15.06402322108966","REV_AT_EPOCH":"10896"},{"MEAN_MOTION_DOT":"-0.00000814","GP_ID":"194981907","SITE":"AFETR","DECAY_DATE":null,"APOAPSIS":"548.334","ARG_OF_PERICENTER":"62.0896","EPHEMERIS_TYPE":"0","TIME_SYSTEM":"UTC","RA_OF_ASC_NODE":"254.8746","INCLINATION":"53.0535","EPOCH":"2022-01-30T21:58:13.626336","BSTAR":"-0.00003574400000","ELEMENT_SET_NO":"999","ECCENTRICITY":"0.00015730","MEAN_ELEMENT_THEORY":"SGP4","SEMIMAJOR_AXIS":"6925.379","NORAD_CAT_ID":"45236","COUNTRY_CODE":"US","REV_AT_EPOCH":"10949","TLE_LINE2":"2 45236  53.0535 254.8746 0001573  62.0896 298.0252 15.06390010109492","MEAN_MOTION_DDOT":"0.0000000000000","CLASSIFICATION_TYPE":"U","LAUNCH_DATE":"2020-02-17","FILE":"3287903","OBJECT_NAME":"STARLINK-1247","PERIOD":"95.593","TLE_LINE1":"1 45236U 20012BL  22030.91543549 -.00000814  00000-0 -35744-4 0  9994","RCS_SIZE":"LARGE","OBJECT_ID":"2020-012BL","MEAN_ANOMALY":"298.0252","REF_FRAME":"TEME","OBJECT_TYPE":"PAYLOAD","CENTER_NAME":"EARTH","MEAN_MOTION":"15.06390010","PERIAPSIS":"546.155"},{"TLE_LINE2":"2 45237  53.0536 255.0915 0001818  69.0126 291.1057 15.06406379109493","REV_AT_EPOCH":"10949","COUNTRY_CODE":"US","EPOCH":"2022-01-30T20:54:29.685024","SEMIMAJOR_AXIS":"6925.329","NORAD_CAT_ID":"45237","MEAN_ELEMENT_THEORY":"SGP4","BSTAR":"0.00032217000000","ECCENTRICITY":"0.00018180","ELEMENT_SET_NO":"999","TIME_SYSTEM":"UTC","APOAPSIS":"548.453","ARG_OF_PERICENTER":"69.0126","EPHEMERIS_TYPE":"0","DECAY_DATE":null,"INCLINATION":"53.0536","RA_OF_ASC_NODE":"255.0915","MEAN_MOTION_DOT":"0.00004521","SITE":"AFETR","GP_ID":"194980655","CENTER_NAME":"EARTH","OBJECT_TYPE":"PAYLOAD","REF_FRAME":"TEME","MEAN_MOTION":"15.06406379","PERIAPSIS":"545.935","TLE_LINE1":"1 45237U 20012BM  22030.87117691  .00004521  00000-0  32217-3 0  9993","PERIOD":"95.592","OBJECT_NAME":"STARLINK-1270","FILE":"3287903","MEAN_ANOMALY":"291.1057","OBJECT_ID":"2020-012BM","RCS_SIZE":"LARGE","LAUNCH_DATE":"2020-02-17","MEAN_MOTION_DDOT":"0.0000000000000","CLASSIFICATION_TYPE":"U"},{"RA_OF_ASC_NODE":"25.8571","INCLINATION":"53.0546","DECAY_DATE":null,"TIME_SYSTEM":"UTC","APOAPSIS":"548.362","EPHEMERIS_TYPE":"0","ARG_OF_PERICENTER":"64.4010","GP_ID":"194980419","SITE":"AFETR","MEAN_MOTION_DOT":"0.00001390","TLE_LINE2":"2 45360  53.0546  25.8571 0001660  64.4010 295.7150 15.06400430104208","REV_AT_EPOCH":"10420","COUNTRY_CODE":"US","SEMIMAJOR_AXIS":"6925.347","NORAD_CAT_ID":"45360","MEAN_ELEMENT_THEORY":"SGP4","ECCENTRICITY":"0.00016600","BSTAR":"0.00011218000000","ELEMENT_SET_NO":"999","EPOCH":"2022-01-30T16:43:42.016512","LAUNCH_DATE":"2020-03-18","CLASSIFICATION_TYPE":"U","MEAN_MOTION_DDOT":"0.0000000000000","PERIAPSIS":"546.063","MEAN_MOTION":"15.06400430","REF_FRAME":"TEME","CENTER_NAME":"EARTH","OBJECT_TYPE":"PAYLOAD","MEAN_ANOMALY":"295.7150","OBJECT_ID":"2020-019A","RCS_SIZE":"LARGE","OBJECT_NAME":"STARLINK-1279","FILE":"3287903","PERIOD":"95.592","TLE_LINE1":"1 45360U 20019A   22030.69701408  .00001390  00000-0  11218-3 0  9991"},{"TLE_LINE2":"2 45361  53.0542  37.6982 0001565  76.5947 283.5216 15.06406426104017","REV_AT_EPOCH":"10401","COUNTRY_CODE":"US","NORAD_CAT_ID":"45361","SEMIMAJOR_AXIS":"6925.329","MEAN_ELEMENT_THEORY":"SGP4","ECCENTRICITY":"0.00015650","BSTAR":"0.00058386000000","ELEMENT_SET_NO":"999","EPOCH":"2022-01-30T06:53:13.380288","RA_OF_ASC_NODE":"37.6982","INCLINATION":"53.0542","DECAY_DATE":null,"TIME_SYSTEM":"UTC","EPHEMERIS_TYPE":"0","APOAPSIS":"548.278","ARG_OF_PERICENTER":"76.5947","GP_ID":"194949828","SITE":"AFETR","MEAN_MOTION_DOT":"0.00008427","PERIAPSIS":"546.110","MEAN_MOTION":"15.06406426","REF_FRAME":"TEME","CENTER_NAME":"EARTH","OBJECT_TYPE":"PAYLOAD","OBJECT_ID":"2020-019B","MEAN_ANOMALY":"283.5216","RCS_SIZE":"LARGE","OBJECT_NAME":"STARLINK-1301","FILE":"3287677","TLE_LINE1":"1 45361U 20019B   22030.28696042  .00008427  00000-0  58386-3 0  9999","PERIOD":"95.592","LAUNCH_DATE":"2020-03-18","CLASSIFICATION_TYPE":"U","MEAN_MOTION_DDOT":"0.0000000000000"},{"SITE":"AFETR","GP_ID":"194981921","MEAN_MOTION_DOT":"0.00001532","RA_OF_ASC_NODE":"55.4051","INCLINATION":"53.0551","APOAPSIS":"548.295","ARG_OF_PERICENTER":"68.3691","EPHEMERIS_TYPE":"0","TIME_SYSTEM":"UTC","DECAY_DATE":null,"ECCENTRICITY":"0.00015760","BSTAR":"0.00012173000000","ELEMENT_SET_NO":"999","NORAD_CAT_ID":"45362","SEMIMAJOR_AXIS":"6925.339","MEAN_ELEMENT_THEORY":"SGP4","EPOCH":"2022-01-30T19:08:19.835520","COUNTRY_CODE":"US","TLE_LINE2":"2 45362  53.0551  55.4051 0001576  68.3691 291.7465 15.06403141103804","REV_AT_EPOCH":"10380","CLASSIFICATION_TYPE":"U","MEAN_MOTION_DDOT":"0.0000000000000","LAUNCH_DATE":"2020-03-18","RCS_SIZE":"LARGE","MEAN_ANOMALY":"291.7465","OBJECT_ID":"2020-019C","PERIOD":"95.592","TLE_LINE1":"1 45362U 20019C   22030.79745180  .00001532  00000-0  12173-3 0  9998","FILE":"3287903","OBJECT_NAME":"STARLINK-1306","PERIAPSIS":"546.112","MEAN_MOTION":"15.06403141","OBJECT_TYPE":"PAYLOAD","CENTER_NAME":"EARTH","REF_FRAME":"TEME"},{"MEAN_MOTION_DDOT":"0.0000000000000","CLASSIFICATION_TYPE":"U","LAUNCH_DATE":"2020-03-18","PERIOD":"95.592","TLE_LINE1":"1 45364U 20019E   22030.82601917  .00001324  00000-0  10776-3 0  9999","FILE":"3287903","OBJECT_NAME":"STARLINK-1313","RCS_SIZE":"LARGE","MEAN_ANOMALY":"298.6864","OBJECT_ID":"2020-019E","OBJECT_TYPE":"PAYLOAD","CENTER_NAME":"EARTH","REF_FRAME":"TEME","PERIAPSIS":"546.058","MEAN_MOTION":"15.06405162","MEAN_MOTION_DOT":"0.00001324","SITE":"AFETR","GP_ID":"194980669","APOAPSIS":"548.338","ARG_OF_PERICENTER":"61.4290","EPHEMERIS_TYPE":"0","TIME_SYSTEM":"UTC","DECAY_DATE":null,"RA_OF_ASC_NODE":"25.2829","INCLINATION":"53.0560","EPOCH":"2022-01-30T19:49:28.056288","ECCENTRICITY":"0.00016460","BSTAR":"0.00010776000000","ELEMENT_SET_NO":"999","MEAN_ELEMENT_THEORY":"SGP4","SEMIMAJOR_AXIS":"6925.333","NORAD_CAT_ID":"45364","COUNTRY_CODE":"US","TLE_LINE2":"2 45364  53.0560  25.2829 0001646  61.4290 298.6864 15.06405162104222","REV_AT_EPOCH":"10422"},{"EPOCH":"2022-01-30T10:15:40.128192","NORAD_CAT_ID":"45365","SEMIMAJOR_AXIS":"6927.843","MEAN_ELEMENT_THEORY":"SGP4","ECCENTRICITY":"0.00016520","BSTAR":"-0.00004318600000","ELEMENT_SET_NO":"999","TLE_LINE2":"2 45365  53.0037  37.0834 0001652  77.6952 282.4221 15.05586355103994","REV_AT_EPOCH":"10399","COUNTRY_CODE":"US","MEAN_MOTION_DOT":"-0.00000909","SITE":"AFETR","GP_ID":"194961382","TIME_SYSTEM":"UTC","APOAPSIS":"550.853","EPHEMERIS_TYPE":"0","ARG_OF_PERICENTER":"77.6952","DECAY_DATE":null,"RA_OF_ASC_NODE":"37.0834","INCLINATION":"53.0037","TLE_LINE1":"1 45365U 20019F   22030.42754778 -.00000909  00000-0 -43186-4 0  9992","PERIOD":"95.644","OBJECT_NAME":"STARLINK-1317","FILE":"3287894","OBJECT_ID":"2020-019F","MEAN_ANOMALY":"282.4221","RCS_SIZE":"LARGE","CENTER_NAME":"EARTH","OBJECT_TYPE":"PAYLOAD","REF_FRAME":"TEME","MEAN_MOTION":"15.05586355","PERIAPSIS":"548.564","MEAN_MOTION_DDOT":"0.0000000000000","CLASSIFICATION_TYPE":"U","LAUNCH_DATE":"2020-03-18"}];
